IRIDIUM 33              
1 24946U 97051C   25110.16953001  .00000417  00000+0  14008-3 0  9998
2 24946  86.3918 167.4767 0005545 265.8302  94.2261 14.34853984444437
IRIDIUM 33 DEB          
1 33773U 97051L   25110.16757709  .00001605  00000+0  47700-3 0  9998
2 33773  86.4048 160.7603 0010084 204.1494 155.9236 14.42650346849417
IRIDIUM 33 DEB          
1 33775U 97051N   25109.60015280  .00002483  00000+0  77155-3 0  9990
2 33775  86.3656 150.7163 0012120 217.1056 297.0366 14.40672096847250
IRIDIUM 33 DEB          
1 33776U 97051P   25109.52939350  .00001286  00000+0  42073-3 0  9996
2 33776  86.4106 180.2842 0012299 252.1546 240.1189 14.37769626846820
IRIDIUM 33 DEB          
1 33777U 97051Q   25110.14881248  .00003671  00000+0  87530-3 0  9996
2 33777  86.3793 137.9079 0007349  13.7654 346.3752 14.53513715851032
IRIDIUM 33 DEB          
1 33850U 97051T   25110.10497339  .00002275  00000+0  69707-3 0  9993
2 33850  86.3396 131.8741 0009291 217.6129 204.2469 14.41330731847463
IRIDIUM 33 DEB          
1 33853U 97051W   25110.36864259  .00001633  00000+0  94429-3 0  9999
2 33853  85.9963  93.3213 0210782 240.2918 249.9056 13.97943537820535
IRIDIUM 33 DEB          
1 33859U 97051AC  25110.47908029  .00062731  00000+0  59077-2 0  9996
2 33859  86.3008 112.9219 0026644 113.5047 246.8985 14.93272910850017
IRIDIUM 33 DEB          
1 33860U 97051AD  25110.49477295  .00009762  00000+0  18811-2 0  9992
2 33860  86.3836 131.4222 0012864  75.0600  46.2430 14.63397132852755
IRIDIUM 33 DEB          
1 33862U 97051AF  25110.11013626  .00011136  00000+0  19839-2 0  9996
2 33862  86.4108 141.5394 0055339 157.8044 256.5636 14.65954488853544
IRIDIUM 33 DEB          
1 33864U 97051AH  25110.21431792  .00534963  00000+0  92873-2 0  9994
2 33864  86.2242  27.5893 0018519 124.1642 236.1375 15.48778732855892
IRIDIUM 33 DEB          
1 33866U 97051AK  25110.30024615  .00007492  00000+0  30544-2 0  9997
2 33866  86.3042 192.8885 0113382 197.8672 231.2488 14.23859222834506
IRIDIUM 33 DEB          
1 33867U 97051AL  25110.36633543  .00054820  00000+0  42638-2 0  9994
2 33867  86.3800 103.7621 0016585 157.0967 203.1009 15.00919770859325
IRIDIUM 33 DEB          
1 33870U 97051AP  25109.60499365  .00003097  00000+0  89141-3 0  9996
2 33870  86.3786 159.7420 0018854 246.3466 266.0069 14.44414019847129
IRIDIUM 33 DEB          
1 33874U 97051AT  25110.06980898  .00165451  00000+0  99463-2 0  9998
2 33874  86.2430 112.4286 0013560  78.7767 344.1526 15.10017051845037
IRIDIUM 33 DEB          
1 33881U 97051BA  25110.29381757  .00031034  00000+0  75090-2 0  9999
2 33881  86.3903 208.9982 0059423 237.4455 185.5640 14.51808065840701
IRIDIUM 33 DEB          
1 33884U 97051BD  25110.53843848  .00019231  00000+0  30495-2 0  9998
2 33884  86.3616 116.0991 0014746  64.2899  56.1844 14.72014840853752
IRIDIUM 33 DEB          
1 33886U 97051BF  25110.58620102  .00000794  00000+0  26787-3 0  9995
2 33886  86.3878 166.5682 0011939 303.8873 224.5301 14.35734976846654
IRIDIUM 33 DEB          
1 33887U 97051BG  25110.50791899  .00000828  00000+0  27304-3 0  9994
2 33887  86.2994 105.1632 0004394 307.3736 171.7967 14.36948900847669
IRIDIUM 33 DEB          
1 33953U 97051BN  25110.14187626  .00004154  00000+0  10042-2 0  9991
2 33953  86.3902 156.1754 0018991 164.0239 250.3846 14.52799110849159
IRIDIUM 33 DEB          
1 33960U 97051BV  25110.24747919  .00019733  00000+0  27841-2 0  9991
2 33960  86.2626  39.9454 0004671 111.5284  11.8549 14.77116479853839
IRIDIUM 33 DEB          
1 33966U 97051CB  25110.15100508  .00002617  00000+0  69383-3 0  9995
2 33966  86.3937 147.4477 0004892 276.4206 144.5353 14.48403074850428
IRIDIUM 33 DEB          
1 34071U 97051CE  25110.09192862  .00003351  00000+0  89568-3 0  9993
2 34071  86.3422 120.5755 0007939 160.4413 199.7096 14.48085886849660
IRIDIUM 33 DEB          
1 34077U 97051CL  25109.18206031  .00009165  00000+0  18828-2 0  9990
2 34077  86.3900 155.6823 0014521 112.8861 309.9349 14.60474831848611
IRIDIUM 33 DEB          
1 34079U 97051CN  25110.52593350  .00018039  00000+0  25642-2 0  9997
2 34079  86.3769 115.4494 0010898  85.2590  35.7948 14.76770180854911
IRIDIUM 33 DEB          
1 34088U 97051CX  25110.11613875  .00019683  00000+0  26329-2 0  9996
2 34088  86.3880 138.1970 0004614  16.1096  40.4028 14.79381317852585
IRIDIUM 33 DEB          
1 34091U 97051DA  25110.17069152  .00018287  00000+0  30816-2 0  9994
2 34091  86.3564 173.4434 0042697  52.4190 308.0890 14.68812308844045
IRIDIUM 33 DEB          
1 34097U 97051DG  25109.97397732  .00006656  00000+0  23467-2 0  9995
2 34097  86.1948 105.7179 0087420  51.7106 309.1909 14.32523923837904
IRIDIUM 33 DEB          
1 34106U 97051DR  25110.43256834  .00900710  00000+0  94454-2 0  9994
2 34106  86.3131  80.4253 0019751 124.8903 235.4223 15.61801353856755
IRIDIUM 33 DEB          
1 34145U 97051DY  25109.86516945  .00005217  00000+0  16073-2 0  9993
2 34145  86.2096  77.8030 0056066 150.8320 209.6031 14.40396531842266
IRIDIUM 33 DEB          
1 34146U 97051DZ  25109.92742351  .00004636  00000+0  12596-2 0  9993
2 34146  86.2799  94.2038 0026374 297.5925  91.3453 14.47177731846801
IRIDIUM 33 DEB          
1 34159U 97051EN  25109.81167664  .00001680  00000+0  54927-3 0  9994
2 34159  86.3527 149.1932 0027776 349.7518  10.3110 14.37784550845546
IRIDIUM 33 DEB          
1 34350U 97051ES  25110.19843153  .00002210  00000+0  63107-3 0  9994
2 34350  86.3229 105.3792 0020302 197.3821 285.5414 14.44647829848774
IRIDIUM 33 DEB          
1 34366U 97051FJ  25110.10990385  .00004883  00000+0  12161-2 0  9993
2 34366  86.3730 151.9491 0020500 209.2596 208.4006 14.51407465847467
IRIDIUM 33 DEB          
1 34375U 97051FT  25109.90967828  .00002184  00000+0  10145-2 0  9997
2 34375  86.4253 278.1456 0103867 158.6741 356.4287 14.17413745833569
IRIDIUM 33 DEB          
1 34376U 97051FU  25110.16880389  .00014795  00000+0  32061-2 0  9996
2 34376  86.2984 112.4127 0024804 255.2520 104.5940 14.57905685847179
IRIDIUM 33 DEB          
1 34486U 97051GB  25110.04557230  .00023048  00000+0  27360-2 0  9998
2 34486  86.3948 120.0926 0008674 226.6810 187.0238 14.84340099855341
IRIDIUM 33 DEB          
1 34487U 97051GC  25108.99513484  .00001080  00000+0  31651-3 0  9994
2 34487  86.3390 114.7076 0030479 192.6589 196.9077 14.42792941848200
IRIDIUM 33 DEB          
1 34488U 97051GD  25109.35605627  .00052483  00000+0  42537-2 0  9994
2 34488  86.3287  59.7995 0017103 133.2760 226.9902 14.99345069856572
IRIDIUM 33 DEB          
1 34492U 97051GH  25109.32732505  .00016881  00000+0  66003-2 0  9998
2 34492  86.4705  69.9332 0206662 279.9838 236.9886 14.18442848816869
IRIDIUM 33 DEB          
1 34497U 97051GN  25109.57356417  .00002179  00000+0  86621-3 0  9998
2 34497  86.2812 153.6089 0082222  23.6905 127.2801 14.26475709835012
IRIDIUM 33 DEB          
1 34508U 97051GZ  25110.32706987  .00006604  00000+0  21896-2 0  9996
2 34508  86.3767 202.5631 0066350 225.5725 134.0032 14.36472731839131
IRIDIUM 33 DEB          
1 34521U 97051HN  25109.07421055  .00005908  00000+0  12237-2 0  9996
2 34521  86.3797 134.8565 0004071  43.1253 317.0275 14.60123142850012
IRIDIUM 33 DEB          
1 34525U 97051HS  25110.57797264  .00001759  00000+0  52886-3 0  9990
2 34525  86.3741 147.5780 0006298 130.4425  22.2546 14.42160573847379
IRIDIUM 33 DEB          
1 34529U 97051HW  25110.51443490  .00001163  00000+0  36110-3 0  9998
2 34529  86.3628 136.1056 0002986 252.3721 107.7152 14.40292867847989
IRIDIUM 33 DEB          
1 34538U 97051JF  25108.74873669  .00004285  00000+0  13177-2 0  9990
2 34538  86.2726 109.6256 0037244  31.3749  29.0422 14.40963695843272
IRIDIUM 33 DEB          
1 34540U 97051JH  25110.33721493  .00015539  00000+0  25507-2 0  9992
2 34540  86.3135  55.1222 0015340 274.3750 207.7208 14.70509378855819
IRIDIUM 33 DEB          
1 34648U 97051JZ  25109.16233742  .00006046  00000+0  29823-2 0  9993
2 34648  86.3976  17.3653 0193165 322.5028  36.2806 14.08133956816154
IRIDIUM 33 DEB          
1 34651U 97051KC  25110.38993878  .00014645  00000+0  58082-2 0  9999
2 34651  86.2832 240.7617 0152860 240.1293 118.4634 14.22545272825512
IRIDIUM 33 DEB          
1 34652U 97051KD  25108.22358068  .00007332  00000+0  15263-2 0  9995
2 34652  86.3288  85.9388 0031352  31.3917  28.8042 14.59607151850024
IRIDIUM 33 DEB          
1 34690U 97051KM  25110.52909023  .00004624  00000+0  10992-2 0  9991
2 34690  86.3787 139.5547 0013633  85.0967  67.3018 14.53658762846839
IRIDIUM 33 DEB          
1 34693U 97051KQ  25110.32196689  .00061229  00000+0  50569-2 0  9996
2 34693  86.3207  57.5933 0016492 138.9243 346.6517 14.98582853854122
IRIDIUM 33 DEB          
1 34696U 97051KT  25109.52992791  .00021384  00000+0  49698-2 0  9996
2 34696  86.1936 136.4696 0081281 247.5214 278.4800 14.52794812832176
IRIDIUM 33 DEB          
1 34702U 97051KZ  25110.17076431  .00279942  00000+0  73514-2 0  9990
2 34702  86.2814   8.7222 0010061  44.0815 316.1237 15.37476261860030
IRIDIUM 33 DEB          
1 34765U 97051LJ  25110.10258728  .00001818  00000+0  57440-3 0  9999
2 34765  86.3375 134.2517 0014028 278.8480 147.5683 14.39698601842874
IRIDIUM 33 DEB          
1 34775U 97051LU  25109.34655271  .00057793  00000+0  51926-2 0  9993
2 34775  86.3318 131.8774 0014169  26.9119  33.4030 14.95346608847971
IRIDIUM 33 DEB          
1 34833U 97051MH  25110.13357104  .00003606  00000+0  91200-3 0  9995
2 34833  86.3958 152.7872 0021144 163.0687 251.4082 14.50605548842911
IRIDIUM 33 DEB          
1 34870U 97051MQ  25105.15707266  .00016947  00000+0  27260-2 0  9996
2 34870  86.3119  64.1641 0017390 321.3805  96.2981 14.71369018854727
IRIDIUM 33 DEB          
1 34896U 97051MY  25108.66229258  .00008236  00000+0  15739-2 0  9993
2 34896  86.3276  73.1543 0025795 319.7196 163.0827 14.63600605841349
IRIDIUM 33 DEB          
1 34926U 97051NF  25108.00744462  .00029487  00000+0  77978-2 0  9998
2 34926  86.1422 117.9299 0097045   9.7901  18.8758 14.45892019829995
